     3.03           N: GNSS NAV DATA    M: MIXED            RINEX VERSION / TYPE
GPP.DLL V3.2.21                         20250313 103214 UTC PGM / RUN BY / DATE 
GPSA    .2608D-07   .7451D-08  -.1192D-06   .1192D-06       IONOSPHERIC CORR    
GPSB    .1393D+06  -.8192D+05   .6554D+05  -.4588D+06       IONOSPHERIC CORR    
GPUT   .3725290298D-08  .976996262D-14 405504 2249          TIME SYSTEM CORR    
GLUT   .1862645149D-08  .000000000D+00      0    0          TIME SYSTEM CORR    
    18    18  2185     7                                    LEAP SECONDS        
                                                            END OF HEADER       
C03 2023 02 14 10 00 14  .220641377382D-03  .580451242627D-10  .000000000000D+00
      .100000000000D+01  .140531250000D+03  .424517682865D-08 -.248197064804D+00
      .486848875880D-05  .840626540594D-03  .389525666833D-05  .649337982368D+04
      .208814000000D+06 -.171829015017D-06 -.686064497066D+00  .134576112032D-06
      .114272331833D+00 -.115109375000D+03 -.761548253839D+00 -.333228166005D-08
      .575381109790D-09  .000000000000D+00  .893000000000D+03  .000000000000D+00
      .000000000000D+00  .000000000000D+00  .229999996826D-08  .000000000000D+00
      .209984000000D+06  .000000000000D+00  .000000000000D+00  .000000000000D+00
C11 2023 02 14 10 00 14 -.121232122183D-03  .215143458604D-10  .000000000000D+00
      .100000000000D+01  .235937500000D+01  .328513683914D-08  .303556552993D+01
      .122468918562D-06  .208801450208D-02  .318652018905D-05  .528263997841D+04
      .208814000000D+06  .661239027977D-07 -.272658655814D+01 -.395812094212D-07
      .988196988840D+00  .308843750000D+03 -.170683876096D+01 -.680385483644D-08
      .196436753808D-10  .000000000000D+00  .893000000000D+03  .000000000000D+00
      .000000000000D+00  .000000000000D+00  .429999991169D-08  .000000000000D+00
      .209984000000D+06  .000000000000D+00  .000000000000D+00  .000000000000D+00
C13 2023 02 14 10 00 14  .207512523048D-03  .900879371102D-11  .000000000000D+00
      .100000000000D+01 -.434625000000D+03  .622883088438D-09  .201840288894D+01
     -.141016207635D-04  .479374476708D-02  .103181228042D-04  .649331443787D+04
      .208814000000D+06  .461004674435D-07 -.159593209746D+01  .330619513988D-07
      .101962795493D+01 -.534687500000D+02 -.236546559601D+01 -.186364905704D-08
      .162506769059D-09  .000000000000D+00  .893000000000D+03  .000000000000D+00
      .000000000000D+00  .000000000000D+00 -.939999988958D-08  .000000000000D+00
      .209984000000D+06  .000000000000D+00  .000000000000D+00  .000000000000D+00
G06 2023 02 14 12 00 00  .572265125811D-03  .443378667114D-11  .000000000000D+00
      .640000000000D+02 -.524062500000D+02  .374837042039D-08  .166395927301D+01
     -.271573662758D-05  .290396017954D-02  .494159758091D-05  .515361518097D+04
      .216000000000D+06  .260770320892D-07 -.214513948030D+01 -.130385160446D-07
      .988640269110D+00  .296843750000D+03 -.836724347236D+00 -.785139847083D-08
      .178578867098D-11  .000000000000D+00  .224900000000D+04  .000000000000D+00
      .000000000000D+00  .000000000000D+00  .372529029846D-08  .640000000000D+02
      .209988000000D+06  .000000000000D+00  .000000000000D+00  .000000000000D+00
G17 2023 02 14 12 00 00  .699967145920D-03  .238742359215D-11  .000000000000D+00
      .380000000000D+02  .526562500000D+02  .406338354195D-08 -.267290754560D+01
      .277534127235D-05  .136664586607D-01  .393576920033D-05  .515371919823D+04
      .216000000000D+06  .154599547386D-06 -.313798771330D+01  .819563865662D-07
      .975893499619D+00  .311156250000D+03 -.141998535719D+01 -.780282501898D-08
      .507163982558D-10  .000000000000D+00  .224900000000D+04  .000000000000D+00
      .000000000000D+00  .000000000000D+00 -.111758708954D-07  .380000000000D+02
      .209988000000D+06  .000000000000D+00  .000000000000D+00  .000000000000D+00
G19 2023 02 14 12 00 00  .277579762042D-03  .511590769747D-11  .000000000000D+00
      .600000000000D+01  .400000000000D+02  .412767193410D-08 -.531703805015D+00
      .213086605072D-05  .909829477314D-02  .440701842308D-05  .515360777855D+04
      .216000000000D+06 -.150874257088D-06 -.309339325087D+01 -.124797224998D-06
      .974898291078D+00  .304781250000D+03  .223956491311D+01 -.815069665209D-08
      .689314426998D-10  .000000000000D+00  .224900000000D+04  .000000000000D+00
      .000000000000D+00  .000000000000D+00 -.153668224812D-07  .600000000000D+01
      .209988000000D+06  .000000000000D+00  .000000000000D+00  .000000000000D+00
G14 2023 02 14 12 00 00 -.273529440165D-04  .898126018001D-11  .000000000000D+00
      .490000000000D+02  .693750000000D+02  .468983820773D-08  .813418454486D-01
      .346451997757D-05  .265577202663D-02  .831857323647D-05  .515366892815D+04
      .216000000000D+06  .465661287308D-07  .206941328143D+01  .149011611938D-07
      .949511378343D+00  .213000000000D+03 -.308091003778D+01 -.815855412224D-08
     -.271797035723D-09  .000000000000D+00  .224900000000D+04  .000000000000D+00
      .000000000000D+00  .000000000000D+00 -.791624188423D-08  .490000000000D+02
      .210012000000D+06  .000000000000D+00  .000000000000D+00  .000000000000D+00
C01 2023 02 14 10 00 14  .911210780032D-03 -.296118685128D-11  .000000000000D+00
      .100000000000D+01  .198640625000D+03  .373658421516D-08 -.247714937183D+01
      .671250745654D-05  .486475182697D-03  .329688191414D-05  .649341291237D+04
      .208814000000D+06 -.954605638981D-07 -.609419787523D+00 -.828877091408D-07
      .109638579778D+00 -.100562500000D+03  .198549139123D+01 -.271975614590D-08
      .602167939855D-09  .000000000000D+00  .893000000000D+03  .000000000000D+00
      .000000000000D+00  .000000000000D+00 -.469999994479D-08  .000000000000D+00
      .210014000000D+06  .000000000000D+00  .000000000000D+00  .000000000000D+00
C02 2023 02 14 10 00 14 -.575544778258D-03 -.180586212650D-09  .000000000000D+00
      .100000000000D+01  .219796875000D+03  .513307095587D-08 -.343314045322D-01
      .744452700019D-05  .108591082972D-02  .199535861611D-05  .649346908188D+04
      .208814000000D+06  .405125319958D-07 -.608825911540D+00  .179279595613D-06
      .111061219334D+00 -.574843750000D+02 -.151486735356D+01 -.412160025262D-08
      .523236080597D-09  .000000000000D+00  .893000000000D+03  .000000000000D+00
      .000000000000D+00  .000000000000D+00  .140000000481D-08  .000000000000D+00
      .210014000000D+06  .000000000000D+00  .000000000000D+00  .000000000000D+00
C05 2023 02 14 10 00 14  .257528852671D-03  .600408611717D-12  .000000000000D+00
      .100000000000D+01  .227484375000D+03  .481234331056D-08 -.529330811450D+00
      .764476135373D-05  .134047411848D-02  .935979187489D-06  .649342981720D+04
      .208814000000D+06  .409781932831D-07 -.696308152281D+00  .111293047667D-06
      .117563237735D+00 -.211406250000D+02 -.137483524629D+01 -.366050961778D-08
      .500735143343D-09  .000000000000D+00  .893000000000D+03  .000000000000D+00
      .000000000000D+00  .000000000000D+00  .000000000000D+00  .000000000000D+00
      .210014000000D+06  .000000000000D+00  .000000000000D+00  .000000000000D+00
C14 2023 02 14 10 00 14  .478952308185D-03  .437001546061D-10  .867361737988D-18
      .500000000000D+01 -.488125000000D+02  .379230082169D-08 -.233764500201D+00
     -.241631641984D-05  .122147437651D-02  .876514241099D-05  .528262991905D+04
      .208814000000D+06 -.218860805035D-07 -.666870472049D+00 -.316649675369D-07
      .969691328222D+00  .191390625000D+03 -.540277480726D+00 -.670635077500D-08
      .353586156854D-09  .000000000000D+00  .893000000000D+03  .000000000000D+00
      .000000000000D+00  .000000000000D+00  .740000016819D-08  .000000000000D+00
      .210014000000D+06  .400000000000D+01  .000000000000D+00  .000000000000D+00
G03 2023 02 14 11 59 44 -.363216735423D-03  .454747350886D-11  .000000000000D+00
      .710000000000D+02 -.705937500000D+02  .416517349619D-08  .274383244295D+00
     -.382773578167D-05  .445687386673D-02  .834278762341D-05  .515372286606D+04
      .215984000000D+06  .204890966415D-07 -.110500191128D+01  .484287738800D-07
      .977374777320D+00  .231031250000D+03  .101469603969D+01 -.787354225035D-08
      .251796202608D-09  .000000000000D+00  .224900000000D+04  .000000000000D+00
      .000000000000D+00  .000000000000D+00  .186264514923D-08  .710000000000D+02
      .210018000000D+06  .000000000000D+00  .000000000000D+00  .000000000000D+00
G30 2023 02 14 11 59 44 -.530325807631D-03  .125055521494D-11  .000000000000D+00
      .340000000000D+02  .478125000000D+01  .531343561164D-08  .678037591376D+00
      .437721610069D-06  .612195360009D-02  .802986323833D-05  .515363614464D+04
      .215984000000D+06 -.316649675369D-07  .999325526628D+00  .651925802231D-07
      .935467069273D+00  .208406250000D+03 -.265207483436D+01 -.840963600938D-08
     -.363229415677D-09  .000000000000D+00  .224900000000D+04  .000000000000D+00
      .000000000000D+00  .000000000000D+00  .372529029846D-08  .340000000000D+02
      .210018000000D+06  .000000000000D+00  .000000000000D+00  .000000000000D+00
C04 2023 02 14 10 00 14  .132270622998D-03  .126461507932D-09  .000000000000D+00
      .100000000000D+01  .212390625000D+03  .346050128663D-08 -.235062896173D+01
      .715767964721D-05  .370409106836D-03  .515673309565D-05  .649341863823D+04
      .208814000000D+06 -.433064997196D-07 -.635027908101D+00 -.358559191227D-07
      .974310404282D-01 -.159765625000D+03  .215549392815D+01 -.235688388796D-08
      .571095216980D-09  .000000000000D+00  .893000000000D+03  .000000000000D+00
      .000000000000D+00  .000000000000D+00  .580000003580D-08  .000000000000D+00
      .210074000000D+06  .000000000000D+00  .000000000000D+00  .000000000000D+00
